SL-14 R/B
1 16792U 86046B   26080.25764865  .00000420  00000+0  45504-4 0  9995
2 16792  82.4791  69.2480 0022873 185.9344 174.1605 14.85600912128127
SL-14 R/B
1 16882U 86055B   26080.18610918  .00000395  00000+0  42715-4 0  9998
2 16882  82.5180 115.8666 0017461 296.2914 128.5628 14.85652277121076
AJISAI (EGS)
1 16908U 86061A   26080.26998791 -.00000112  00000+0 -10584-3 0  9998
2 16908  50.0095  57.7367 0011306 316.8618  68.9748 12.44515678469446
SL-14 R/B
1 17567U 87024B   26080.01750897  .00000410  00000+0  43959-4 0  9998
2 17567  82.5245  82.1133 0017170 219.4532 140.5435 14.86142211 89812
COSMOS 1833
1 17589U 87027A   26080.04505371 -.00000249  00000+0 -10749-3 0  9995
2 17589  70.9193 302.1528 0023676 198.1400 161.8879 14.13051037 11927
SL-16 R/B
1 17590U 87027B   26080.19754804 -.00000162  00000+0 -56706-4 0  9998
2 17590  70.9992 252.2425 0002993 115.9586 244.1846 14.17166407 16979
SL-14 R/B
1 17912U 87038B   26080.08566968  .00000380  00000+0  41165-4 0  9991
2 17912  82.4984 286.0700 0020494 124.4814 235.8342 14.85378723 80927
COSMOS 1844
1 17973U 87041A   26080.20959316  .00000135  00000+0  95201-4 0  9997
2 17973  70.9010   9.8775 0030602   1.0836 359.0346 14.14551809  5217
SL-14 R/B
1 18153U 87055B   26080.19524579  .00000423  00000+0  45916-4 0  9998
2 18153  82.5022 338.1902 0020107 339.8040  20.2378 14.85640899 71646
COSMOS 1867
1 18187U 87060A   26080.24786589 -.00000033  00000+0  25253-4 0  9998
2 18187  65.0093 274.3357 0014664 279.3661  80.5765 14.31504685 21591
SL-14 R/B
1 18749U 88001B   26079.98931332  .00000454  00000+0  49621-4 0  9996
2 18749  82.5162 184.7356 0017644 196.4816 163.5829 14.85540086 43705
COSMOS 1933
1 18958U 88020A   26079.93000432  .00004371  00000+0  21304-3 0  9991
2 18958  82.5108 239.7874 0004786 146.1742 213.9798 15.18081803 51939
SL-3 R/B
1 19046U 88032B   26080.18743029  .00005010  00000+0  23374-3 0  9998
2 19046  97.5209  63.3995 0025481 189.7730 170.3013 15.20029794 53859
SL-16 R/B
1 19120U 88039B   26080.18386052 -.00000131  00000+0 -39233-4 0  9990
2 19120  71.0153  44.2413 0023325 317.7273  42.2053 14.19617742960019
COSMOS 1953
1 19210U 88050A   26080.21213465  .00007274  00000+0  25898-3 0  9998
2 19210  82.5085 146.6581 0012653  86.5727 273.6959 15.28699907 39544
SL-8 R/B
1 19257U 88053B   26080.19991088  .00000281  00000+0  99525-4 0  9993
2 19257  74.0450  91.2476 0021542 269.0354 164.1065 14.38923254978253
COSMOS 1975
1 19573U 88093A   26080.11847465  .00005874  00000+0  21200-3 0  9996
2 19573  82.5160 106.2087 0013079 126.0748 234.1705 15.28211514 21152
SL-14 R/B
1 19574U 88093B   26079.97879171  .00000486  00000+0  53061-4 0  9993
2 19574  82.5328  31.4470 0020821   5.3347  63.6004 14.85669422  2693
SL-16 R/B
1 19650U 88102B   26080.20649108 -.00000164  00000+0 -58543-4 0  9997
2 19650  70.9987 127.2656 0014765 343.7614  16.3034 14.16155751928522
INTERCOSMOS 24
1 20261U 89080A   26080.08170274  .00000476  00000+0  14148-3 0  9998
2 20261  82.6016  96.9838 1186705 266.3512  80.1436 12.59573047668232
SL-14 R/B
1 20262U 89080C   26080.15863540  .00000390  00000+0  11011-3 0  9993
2 20262  82.5967 165.8267 1230826 158.5457 207.2223 12.50505429661580
DELTA 1 R/B
1 20323U 89089B   26080.27771985  .00000310  00000+0  84922-4 0  9998
2 20323  97.0696 285.8725 0070718  86.0835 274.8445 14.50672383897411
ARIANE 40 R/B
1 20443U 90005H   26080.14055355  .00000198  00000+0  76509-4 0  9999
2 20443  98.3058 140.4595 0010570 164.1162 196.0360 14.39877284894458
DELTA 2 R/B(1)
1 20453U 90008B   26079.14924541  .00054938  00000+0  62061-3 0  9991
2 20453  35.6026 106.1373 0081508 355.6437   4.3584 15.57257585927769
COSMOS 2058
1 20465U 90010A   26079.96951321  .00003874  00000+0  22760-3 0  9998
2 20465  82.4677  36.3122 0007868 303.6167  56.4312 15.11413772943947
SL-14 R/B
1 20466U 90010B   26079.95044443  .00000403  00000+0  45975-4 0  9995
2 20466  82.4988 256.8078 0018334 262.2608  97.6526 14.83578444930151
SL-14 R/B
1 20511U 90018B   26080.24913770  .00000440  00000+0  52188-4 0  9991
2 20511  82.5224 212.2863 0017400  56.9543 303.3340 14.82156266924295
HST
1 20580U 90037B   26079.96933197  .00006929  00000+0  22656-3 0  9994
2 20580  28.4724 323.0445 0001513 249.9896 110.0536 15.29647673775041
SL-16 R/B
1 20625U 90046B   26080.00789240  .00000083  00000+0  67440-4 0  9995
2 20625  70.9954 274.1421 0016222 284.6558  75.2766 14.15012081849998
COSMOS 2084
1 20663U 90055A   26079.94576389  .00001815  00000+0  13860-3 0  9996
2 20663  62.7888 297.1858 0015364 193.1338 166.9365 15.05707581938011
SL-6 R/B(2)
1 20666U 90055D   26079.41180285  .00001767  00000+0  14218-3 0  9991
2 20666  62.7816 217.3860 0026481 349.5511  10.5034 15.03644129939805
SL-8 R/B
1 20775U 90078B   26080.19901315  .00016563  00000+0  48995-3 0  9998
2 20775  82.9013 240.9547 0359883 335.2274  23.2020 14.89404958811011
SL-8 R/B
1 21088U 91006B   26080.24465748  .00000089  00000+0  74026-4 0  9990
2 21088  82.9457 161.4558 0022358   6.6323  46.9084 13.77495787765665
OKEAN-3
1 21397U 91039A   26080.18242460  .00002016  00000+0  14045-3 0  9992
2 21397  82.5182 325.7101 0012822 294.3580  65.6307 15.04875933866760
COSMOS 2151
1 21422U 91042A   26080.22290393  .00001702  00000+0  13403-3 0  9996
2 21422  82.4935  72.5472 0013191  28.0964 332.0969 15.00150266864922
SL-14 R/B
1 21423U 91042B   26080.10203688  .00000430  00000+0  51412-4 0  9995
2 21423  82.4943 209.4818 0016547 198.9753 161.0846 14.81840650854764
ERS-1
1 21574U 91050A   26080.30564164  .00000241  00000+0  91765-4 0  9997
2 21574  98.7874  98.8319 0032289 165.9797 194.2294 14.39457491817408
ARIANE 40 R/B
1 21610U 91050F   26080.12092168  .00000224  00000+0  79446-4 0  9991
2 21610  98.1988 131.9271 0003963  56.0749 304.0818 14.42901179820643
INTERCOSMOS 25
1 21819U 91086A   26080.13211963  .00001478  00000+0  28238-3 0  9992
2 21819  82.6032 303.0919 1486794  92.2798 284.8651 12.12038205498071
SL-8 R/B
1 21876U 92008B   26080.23363318 -.00000002  00000+0 -18140-4 0  9999
2 21876  82.9223 259.1883 0035900 102.1130  70.5836 13.75969567711009
SL-8 R/B
1 21938U 92020B   26080.18331979  .00000048  00000+0  34405-4 0  9994
2 21938  82.9319 145.2286 0027556 265.1682 147.5527 13.75550248702718
USA 81
1 21949U 92023A   26080.18531436  .00000152  00000+0  49061-4 0  9999
2 21949  85.0063 124.8082 0002116  69.9819 290.1602 14.32371493 96435
COSMOS 2219
1 22219U 92076A   26080.19276924 -.00000143  00000+0 -50367-4 0  9990
2 22219  71.0638 354.0238 0018308 190.7516 169.3218 14.14093017720006
SL-16 R/B
1 22220U 92076B   26080.01422744  .00000281  00000+0  16381-3 0  9994
2 22220  71.0006 164.5209 0010629  75.3681  96.3989 14.16861534723431
COSMOS 2221
1 22236U 92080A   26080.27392680  .00001860  00000+0  16219-3 0  9993
2 22236  82.5000 267.9813 0015025 148.9666 211.2447 14.96244918782524
SL-16 R/B
1 22285U 92093B   26080.11740078  .00000295  00000+0  17560-3 0  9993
2 22285  71.0238 340.2783 0006309 282.2023  77.8393 14.15449293714771
COSMOS 2228
1 22286U 92094A   26080.21573298  .00002308  00000+0  19662-3 0  9996
2 22286  82.5172 226.2737 0016593 262.6423  97.2914 14.97246371777787
SL-16 R/B
1 22566U 93016B   26080.30028687 -.00000252  00000+0 -10499-3 0  9996
2 22566  71.0081 190.7969 0012342 298.9937  60.9948 14.15306940703818
COSMOS 2242
1 22626U 93024A   26080.20288170  .00001851  00000+0  16004-3 0  9998
2 22626  82.5153 255.7008 0014935 266.5418  93.4096 14.96594715782116
SL-16 R/B
1 22803U 93059B   26080.19338791  .00000199  00000+0  12228-3 0  9994
2 22803  70.9931 346.8692 0017862 199.8511 160.1920 14.17234382681168
ARIANE 40 R/B
1 22830U 93061H   26080.15075570  .00000163  00000+0  75422-4 0  9993
2 22830  98.4894 148.8111 0009666 247.1514 112.8650 14.32866426695740
COSMOS 2278
1 23087U 94023A   26080.19637729 -.00000208  00000+0 -83936-4 0  9992
2 23087  71.0537 151.0262 0008803 353.9834   6.1182 14.14378176646439
SL-16 R/B
1 23088U 94023B   26080.16700284  .00000097  00000+0  74666-4 0  9991
2 23088  70.9996  46.7814 0005488 274.4055  85.6441 14.15010497647710
SL-16 R/B
1 23343U 94074B   26080.08841624  .00000386  00000+0  58350-4 0  9999
2 23343  97.7094 110.4439 0006691 171.6066 248.7285 14.79420129688933
SL-16 R/B
1 23405U 94077B   26080.14414804  .00000270  00000+0  16240-3 0  9997
2 23405  70.9847 328.3929 0002419 199.8144 160.2885 14.15566762617859
ARIANE 40+ R/B
1 23561U 95021B   26080.21484452  .00000248  00000+0  93099-4 0  9997
2 23561  98.4476 151.5402 0007952 106.5497 318.6407 14.39780156620900
SL-16 R/B
1 23705U 95058B   26080.29301635 -.00000026  00000+0  11171-4 0  9992
2 23705  71.0221 155.8961 0010237 104.3712 255.8548 14.15500893569494
SL-16 R/B
1 24298U 96051B   26080.21410072  .00000101  00000+0  81256-4 0  9996
2 24298  70.7597 150.8479 0014110 129.8665 230.3698 14.12418766523270
ORBVIEW 2 (SEASTAR)
1 24883U 97037A   26080.19750315  .00000229  00000+0  95800-4 0  9996
2 24883  98.8586 244.8153 0002737  47.5586 312.5829 14.35502562510124
SL-16 R/B
1 25400U 98043G   26079.88755704  .00000045  00000+0  37825-4 0  9990
2 25400  98.8274  33.3315 0009627 348.4017  11.6939 14.26052163440580
SL-16 R/B
1 25407U 98045B   26080.29824680 -.00000004  00000+0  22008-4 0  9999
2 25407  71.0118 157.1635 0007545 349.6112  10.4855 14.16195465428743
CZ-4B R/B
1 25732U 99025C   26080.09284869  .00000038  00000+0  39130-4 0  9996
2 25732  98.6603 124.1031 0036222 313.2741 100.5608 14.18267429389780
OKEAN-O
1 25860U 99039A   26080.14277572  .00000554  00000+0  79401-4 0  9990
2 25860  97.9418 139.9165 0000942  78.1000 282.0317 14.80352508436086
SL-16 R/B
1 25861U 99039B   26080.17939750  .00000487  00000+0  68532-4 0  9995
2 25861  97.9942 139.2576 0013986 215.8136 144.2140 14.81746312438569
DELTA 2 R/B
1 25876U 99041E   26079.91002484  .00000303  00000+0  88582-4 0  9993
2 25876  51.7605 256.4597 0502610  21.5275 340.6000 14.11864775364615
HELIOS 1B
1 25977U 99064A   26080.28219163  .00001504  00000+0  17140-3 0  9991
2 25977  98.1683 342.8656 0002158  58.9417 301.2010 14.87740923686980
